[{"OBJECT_NAME":"ONEWEB-0659","OBJECT_ID":"2022-166AN","EPOCH":"2026-03-09T22:18:26.103456","MEAN_MOTION":13.21828026,"ECCENTRICITY":0.00016838,"INCLINATION":87.9163,"RA_OF_ASC_NODE":263.7832,"ARG_OF_PERICENTER":90.6179,"MEAN_ANOMALY":269.5148,"EPHEMERIS_TYPE":0,"CLASSIFICATION_TYPE":"U","NORAD_CAT_ID":54678,"ELEMENT_SET_NO":999,"REV_AT_EPOCH":15841,"BSTAR":0.00013127399,"MEAN_MOTION_DOT":6.7e-7,"MEAN_MOTION_DDOT":0},{"OBJECT_NAME":"OPS 8464 (TRANSIT 5B-7)","OBJECT_ID":"1965-065F","EPOCH":"2026-03-09T23:13:40.294272","MEAN_MOTION":13.35351324,"ECCENTRICITY":0.00717147,"INCLINATION":89.9873,"RA_OF_ASC_NODE":227.9397,"ARG_OF_PERICENTER":80.6843,"MEAN_ANOMALY":35.6334,"EPHEMERIS_TYPE":0,"CLASSIFICATION_TYPE":"U","NORAD_CAT_ID":1514,"ELEMENT_SET_NO":999,"REV_AT_EPOCH":94802,"BSTAR":0.00017584555,"MEAN_MOTION_DOT":1.0e-6,"MEAN_MOTION_DDOT":0}]
